CCSDS_OMM_VERS = 2.0
CREATION_DATE  = 
ORIGINATOR     = 

OBJECT_NAME    = STARLINK-35902
OBJECT_ID      = 2025-271K
CENTER_NAME    = EARTH
REF_FRAME      = TEME
TIME_SYSTEM    = UTC
MEAN_ELEMENT_THEORY = SGP/SGP4

EPOCH          = 2025-12-27T01:00:55.456992
MEAN_MOTION    = 15.39642706
ECCENTRICITY   = .00015851
INCLINATION    = 53.1595
RA_OF_ASC_NODE = 119.5362
ARG_OF_PERICENTER = 84.6122
MEAN_ANOMALY   = 275.5063

EPHEMERIS_TYPE = 0
CLASSIFICATION_TYPE = U
NORAD_CAT_ID   = 66626
ELEMENT_SET_NO = 999
REV_AT_EPOCH   = 641
BSTAR          = .19071736E-2
MEAN_MOTION_DOT = .76715E-3
MEAN_MOTION_DDOT = 0

CCSDS_OMM_VERS = 2.0
CREATION_DATE  = 
ORIGINATOR     = 

OBJECT_NAME    = STARLINK-35904
OBJECT_ID      = 2025-271L
CENTER_NAME    = EARTH
REF_FRAME      = TEME
TIME_SYSTEM    = UTC
MEAN_ELEMENT_THEORY = SGP/SGP4

EPOCH          = 2025-12-27T00:47:32.907264
MEAN_MOTION    = 15.39653110
ECCENTRICITY   = .00012006
INCLINATION    = 53.1602
RA_OF_ASC_NODE = 119.4785
ARG_OF_PERICENTER = 88.2066
MEAN_ANOMALY   = 271.9076

EPHEMERIS_TYPE = 0
CLASSIFICATION_TYPE = U
NORAD_CAT_ID   = 66627
ELEMENT_SET_NO = 999
REV_AT_EPOCH   = 637
BSTAR          = .11925382E-2
MEAN_MOTION_DOT = .47652E-3
MEAN_MOTION_DDOT = 0

CCSDS_OMM_VERS = 2.0
CREATION_DATE  = 
ORIGINATOR     = 

OBJECT_NAME    = STARLINK-35862
OBJECT_ID      = 2025-271M
CENTER_NAME    = EARTH
REF_FRAME      = TEME
TIME_SYSTEM    = UTC
MEAN_ELEMENT_THEORY = SGP/SGP4

EPOCH          = 2025-12-27T00:00:02.999808
MEAN_MOTION    = 15.39598376
ECCENTRICITY   = .00013028
INCLINATION    = 53.1601
RA_OF_ASC_NODE = 119.3739
ARG_OF_PERICENTER = 86.0407
MEAN_ANOMALY   = 221.7503

EPHEMERIS_TYPE = 0
CLASSIFICATION_TYPE = U
NORAD_CAT_ID   = 66628
ELEMENT_SET_NO = 999
REV_AT_EPOCH   = 609
BSTAR          = .1471086E-3
MEAN_MOTION_DOT = .5485E-4
MEAN_MOTION_DDOT = 0

CCSDS_OMM_VERS = 2.0
CREATION_DATE  = 
ORIGINATOR     = 

OBJECT_NAME    = STARLINK-35956
OBJECT_ID      = 2025-271N
CENTER_NAME    = EARTH
REF_FRAME      = TEME
TIME_SYSTEM    = UTC
MEAN_ELEMENT_THEORY = SGP/SGP4

EPOCH          = 2025-12-27T05:00:05.360832
MEAN_MOTION    = 15.57385878
ECCENTRICITY   = .00102439
INCLINATION    = 53.1713
RA_OF_ASC_NODE = 117.7428
ARG_OF_PERICENTER = 28.3135
MEAN_ANOMALY   = 331.8433

EPHEMERIS_TYPE = 0
CLASSIFICATION_TYPE = U
NORAD_CAT_ID   = 66629
ELEMENT_SET_NO = 999
REV_AT_EPOCH   = 131
BSTAR          = .64599438E-2
MEAN_MOTION_DOT = .513997E-2
MEAN_MOTION_DDOT = 0

CCSDS_OMM_VERS = 2.0
CREATION_DATE  = 
ORIGINATOR     = 

OBJECT_NAME    = STARLINK-35949
OBJECT_ID      = 2025-271P
CENTER_NAME    = EARTH
REF_FRAME      = TEME
TIME_SYSTEM    = UTC
MEAN_ELEMENT_THEORY = SGP/SGP4

EPOCH          = 2025-12-27T06:00:02.000160
MEAN_MOTION    = 15.39549912
ECCENTRICITY   = .00005662
INCLINATION    = 53.1603
RA_OF_ASC_NODE = 118.1457
ARG_OF_PERICENTER = 74.3603
MEAN_ANOMALY   = 203.7416

EPHEMERIS_TYPE = 0
CLASSIFICATION_TYPE = U
NORAD_CAT_ID   = 66630
ELEMENT_SET_NO = 999
REV_AT_EPOCH   = 608
BSTAR          = .2225795E-2
MEAN_MOTION_DOT = .89474E-3
MEAN_MOTION_DDOT = 0

CCSDS_OMM_VERS = 2.0
CREATION_DATE  = 
ORIGINATOR     = 

OBJECT_NAME    = STARLINK-35965
OBJECT_ID      = 2025-271Q
CENTER_NAME    = EARTH
REF_FRAME      = TEME
TIME_SYSTEM    = UTC
MEAN_ELEMENT_THEORY = SGP/SGP4

EPOCH          = 2025-12-27T06:00:02.000160
MEAN_MOTION    = 15.39562154
ECCENTRICITY   = .00008356
INCLINATION    = 53.1601
RA_OF_ASC_NODE = 118.1428
ARG_OF_PERICENTER = 83.1212
MEAN_ANOMALY   = 196.7920

EPHEMERIS_TYPE = 0
CLASSIFICATION_TYPE = U
NORAD_CAT_ID   = 66631
ELEMENT_SET_NO = 999
REV_AT_EPOCH   = 597
BSTAR          = .20815466E-2
MEAN_MOTION_DOT = .83619E-3
MEAN_MOTION_DDOT = 0

CCSDS_OMM_VERS = 2.0
CREATION_DATE  = 
ORIGINATOR     = 

OBJECT_NAME    = STARLINK-35973
OBJECT_ID      = 2025-271R
CENTER_NAME    = EARTH
REF_FRAME      = TEME
TIME_SYSTEM    = UTC
MEAN_ELEMENT_THEORY = SGP/SGP4

EPOCH          = 2025-12-26T17:26:55.042944
MEAN_MOTION    = 15.39664523
ECCENTRICITY   = .00021729
INCLINATION    = 53.1617
RA_OF_ASC_NODE = 121.1270
ARG_OF_PERICENTER = 35.2508
MEAN_ANOMALY   = 324.8640

EPHEMERIS_TYPE = 0
CLASSIFICATION_TYPE = U
NORAD_CAT_ID   = 66632
ELEMENT_SET_NO = 999
REV_AT_EPOCH   = 632
BSTAR          = .12860701E-2
MEAN_MOTION_DOT = .51467E-3
MEAN_MOTION_DDOT = 0

CCSDS_OMM_VERS = 2.0
CREATION_DATE  = 
ORIGINATOR     = 

OBJECT_NAME    = STARLINK-35948
OBJECT_ID      = 2025-271S
CENTER_NAME    = EARTH
REF_FRAME      = TEME
TIME_SYSTEM    = UTC
MEAN_ELEMENT_THEORY = SGP/SGP4

EPOCH          = 2025-12-26T17:26:26.128320
MEAN_MOTION    = 15.39638494
ECCENTRICITY   = .00010808
INCLINATION    = 53.1606
RA_OF_ASC_NODE = 121.1227
ARG_OF_PERICENTER = 69.9057
MEAN_ANOMALY   = 290.2065

EPHEMERIS_TYPE = 0
CLASSIFICATION_TYPE = U
NORAD_CAT_ID   = 66633
ELEMENT_SET_NO = 999
REV_AT_EPOCH   = 636
BSTAR          = .13683003E-2
MEAN_MOTION_DOT = .54759E-3
MEAN_MOTION_DDOT = 0

CCSDS_OMM_VERS = 2.0
CREATION_DATE  = 
ORIGINATOR     = 

OBJECT_NAME    = STARLINK-35967
OBJECT_ID      = 2025-271T
CENTER_NAME    = EARTH
REF_FRAME      = TEME
TIME_SYSTEM    = UTC
MEAN_ELEMENT_THEORY = SGP/SGP4

EPOCH          = 2025-12-26T14:12:47.342304
MEAN_MOTION    = 15.39676406
ECCENTRICITY   = .0001064
INCLINATION    = 53.1614
RA_OF_ASC_NODE = 121.7016
ARG_OF_PERICENTER = 81.6663
MEAN_ANOMALY   = 278.4463

EPHEMERIS_TYPE = 0
CLASSIFICATION_TYPE = U
NORAD_CAT_ID   = 66634
ELEMENT_SET_NO = 999
REV_AT_EPOCH   = 630
BSTAR          = .14187E-2
MEAN_MOTION_DOT = .56878E-3
MEAN_MOTION_DDOT = 0

CCSDS_OMM_VERS = 2.0
CREATION_DATE  = 
ORIGINATOR     = 

OBJECT_NAME    = STARLINK-35955
OBJECT_ID      = 2025-271U
CENTER_NAME    = EARTH
REF_FRAME      = TEME
TIME_SYSTEM    = UTC
MEAN_ELEMENT_THEORY = SGP/SGP4

EPOCH          = 2025-12-25T19:17:41.940096
MEAN_MOTION    = 15.39634184
ECCENTRICITY   = .00013376
INCLINATION    = 53.1599
RA_OF_ASC_NODE = 125.3143
ARG_OF_PERICENTER = 69.5636
MEAN_ANOMALY   = 290.5513

EPHEMERIS_TYPE = 0
CLASSIFICATION_TYPE = U
NORAD_CAT_ID   = 66635
ELEMENT_SET_NO = 999
REV_AT_EPOCH   = 622
BSTAR          = .13073376E-2
MEAN_MOTION_DOT = .52277E-3
MEAN_MOTION_DDOT = 0

CCSDS_OMM_VERS = 2.0
CREATION_DATE  = 
ORIGINATOR     = 

OBJECT_NAME    = STARLINK-35968
OBJECT_ID      = 2025-271V
CENTER_NAME    = EARTH
REF_FRAME      = TEME
TIME_SYSTEM    = UTC
MEAN_ELEMENT_THEORY = SGP/SGP4

EPOCH          = 2025-12-27T01:00:26.973504
MEAN_MOTION    = 15.39633228
ECCENTRICITY   = .00015083
INCLINATION    = 53.1601
RA_OF_ASC_NODE = 119.5311
ARG_OF_PERICENTER = 85.7880
MEAN_ANOMALY   = 274.3297

EPHEMERIS_TYPE = 0
CLASSIFICATION_TYPE = U
NORAD_CAT_ID   = 66636
ELEMENT_SET_NO = 999
REV_AT_EPOCH   = 641
BSTAR          = .11776524E-2
MEAN_MOTION_DOT = .47017E-3
MEAN_MOTION_DDOT = 0

CCSDS_OMM_VERS = 2.0
CREATION_DATE  = 
ORIGINATOR     = 

OBJECT_NAME    = STARLINK-35953
OBJECT_ID      = 2025-271W
CENTER_NAME    = EARTH
REF_FRAME      = TEME
TIME_SYSTEM    = UTC
MEAN_ELEMENT_THEORY = SGP/SGP4

EPOCH          = 2025-12-27T00:47:04.456608
MEAN_MOTION    = 15.39644596
ECCENTRICITY   = .00009745
INCLINATION    = 53.1593
RA_OF_ASC_NODE = 119.4733
ARG_OF_PERICENTER = 88.4175
MEAN_ANOMALY   = 271.6942

EPHEMERIS_TYPE = 0
CLASSIFICATION_TYPE = U
NORAD_CAT_ID   = 66637
ELEMENT_SET_NO = 999
REV_AT_EPOCH   = 641
BSTAR          = .15008031E-2
MEAN_MOTION_DOT = .60155E-3
MEAN_MOTION_DDOT = 0

