STARLINK-35902          
1 66626U 25271K   25361.04230853  .00076715  00000+0  19072-2 0  9991
2 66626  53.1595 119.5362 0001585  84.6122 275.5063 15.39642706  6417
STARLINK-35904          
1 66627U 25271L   25361.03301976  .00047652  00000+0  11925-2 0  9993
2 66627  53.1602 119.4785 0001200  88.2066 271.9076 15.39653110  6376
STARLINK-35862          
1 66628U 25271M   25361.00003472  .00005485  00000+0  14711-3 0  9996
2 66628  53.1601 119.3739 0001302  86.0407 221.7503 15.39598376  6091
STARLINK-35956          
1 66629U 25271N   25361.20839538  .00513997  00000+0  64599-2 0  9999
2 66629  53.1713 117.7428 0010243  28.3135 331.8433 15.57385878  1310
STARLINK-35949          
1 66630U 25271P   25361.25002315  .00089474  00000+0  22258-2 0  9995
2 66630  53.1603 118.1457 0000566  74.3603 203.7416 15.39549912  6083
STARLINK-35965          
1 66631U 25271Q   25361.25002315  .00083619  00000+0  20815-2 0  9998
2 66631  53.1601 118.1428 0000835  83.1212 196.7920 15.39562154  5974
STARLINK-35973          
1 66632U 25271R   25360.72702596  .00051467  00000+0  12861-2 0  9996
2 66632  53.1617 121.1270 0002172  35.2508 324.8640 15.39664523  6329
STARLINK-35948          
1 66633U 25271S   25360.72669130  .00054759  00000+0  13683-2 0  9993
2 66633  53.1606 121.1227 0001080  69.9057 290.2065 15.39638494  6369
STARLINK-35967          
1 66634U 25271T   25360.59221461  .00056878  00000+0  14187-2 0  9994
2 66634  53.1614 121.7016 0001064  81.6663 278.4463 15.39676406  6306
STARLINK-35955          
1 66635U 25271U   25359.80395764  .00052277  00000+0  13073-2 0  9997
2 66635  53.1599 125.3143 0001337  69.5636 290.5513 15.39634184  6227
STARLINK-35968          
1 66636U 25271V   25361.04197886  .00047017  00000+0  11777-2 0  9997
2 66636  53.1601 119.5311 0001508  85.7880 274.3297 15.39633228  6413
STARLINK-35953          
1 66637U 25271W   25361.03269047  .00060155  00000+0  15008-2 0  9995
2 66637  53.1593 119.4733 0000974  88.4175 271.6942 15.39644596  6411
